sat18365
1 18365U 87080E   20046.59657499  .00000032  00000-0  37255-4 0  9993
2 18365  90.3089 354.7299 0108604 278.6667 257.4427 13.51410679594932
